IONOSFERA-M 4           
1 64877U 25155B   26159.20052421  .00000074  00000+0  53486-4 0  9999
2 64877  98.6019 121.2495 0000744 116.5440 243.5813 14.21487195 45127
MICROCARB               
1 64899U 25156A   26159.11094301  .00000585  00000+0  10033-3 0  9994
2 64899  97.9831 236.4101 0015162 303.9480  56.0286 14.72316815 46638
CO3D 3                  
1 64900U 25156B   26159.10408851  .00005644  00000+0  26357-3 0  9992
2 64900  97.4325 237.9279 0001095 137.2750 222.8570 15.20209753 48158
CO3D 4                  
1 64901U 25156C   26159.10424015  .00000370  00000+0  20201-4 0  9997
2 64901  97.4332 237.9278 0000833  27.7725 332.3554 15.20192806 48159
CO3D 2                  
1 64902U 25156D   26159.13672209  .00004885  00000+0  22860-3 0  9998
2 64902  97.4323 237.8589 0001388 115.0318 245.1061 15.20204404 48151
CO3D 1                  
1 64903U 25156E   26159.13686839  .00005124  00000+0  23959-3 0  9990
2 64903  97.4324 237.8593 0001165 118.6256 241.5096 15.20214199 48151
PRSC-S1                 
1 65055U 25164A   26159.18101025  .00005864  00000+0  40271-3 0  9999
2 65055  41.1316 338.5321 0007583 290.9194  69.0808 15.06376710 47076
SENTINEL-6B             
1 66514U 25264A   26159.10709918 -.00000031  00000+0  13111-3 0  9993
2 66514  66.0384 154.0379 0008031 269.2531  90.7564 12.80929786 26001
CAS500-3                
1 66655U 25274F   26158.80279978  .00001459  00000+0  16362-3 0  9999
2 66655  97.7446  87.0675 0006280 134.7191 225.4538 14.88299583 28750
CSG-3                   
1 67304U 26001A   26159.01758032  .00000392  00000+0  55773-4 0  9992
2 67304  97.8882 342.7525 0001261  87.5567 272.5791 14.82148132 23103
PRSC-E03                
1 68835U 26092A   26159.24092273  .00002607  00000+0  17972-3 0  9994
2 68835  37.9996 142.4334 0005098 302.5444  57.4824 15.06626489  6609
CAS500-2                
1 69013U 26100AK  26158.67578595  .00007217  00000+0  33297-3 0  9995
2 69013  97.4081  56.6949 0011365  63.8514 296.3889 15.20477097  5363
