OBJECT_NAME,OBJECT_ID,EPOCH,MEAN_MOTION,ECCENTRICITY,INCLINATION,RA_OF_ASC_NODE,ARG_OF_PERICENTER,MEAN_ANOMALY,EPHEMERIS_TYPE,CLASSIFICATION_TYPE,NORAD_CAT_ID,ELEMENT_SET_NO,REV_AT_EPOCH,BSTAR,MEAN_MOTION_DOT,MEAN_MOTION_DDOT
IONOSFERA-M 4,2025-155B,2026-06-08T04:48:45.291744,14.21487195,.0000744,98.6019,121.2495,116.5440,243.5813,0,U,64877,999,4512,.53486E-4,.74E-6,0
MICROCARB,2025-156A,2026-06-08T02:39:45.476064,14.72316815,.0015162,97.9831,236.4101,303.9480,56.0286,0,U,64899,999,4663,.10033E-3,.585E-5,0
CO3D 3,2025-156B,2026-06-08T02:29:53.247264,15.20209753,.0001095,97.4325,237.9279,137.2750,222.8570,0,U,64900,999,4815,.26357E-3,.5644E-4,0
CO3D 4,2025-156C,2026-06-08T02:30:06.348960,15.20192806,.0000833,97.4332,237.9278,27.7725,332.3554,0,U,64901,999,4815,.20201E-4,.37E-5,0
CO3D 2,2025-156D,2026-06-08T03:16:52.788576,15.20204404,.0001388,97.4323,237.8589,115.0318,245.1061,0,U,64902,999,4815,.2286E-3,.4885E-4,0
CO3D 1,2025-156E,2026-06-08T03:17:05.428896,15.20214199,.0001165,97.4324,237.8593,118.6256,241.5096,0,U,64903,999,4815,.23959E-3,.5124E-4,0
PRSC-S1,2025-164A,2026-06-08T04:20:39.285600,15.06376710,.0007583,41.1316,338.5321,290.9194,69.0808,0,U,65055,999,4707,.40271E-3,.5864E-4,0
SENTINEL-6B,2025-264A,2026-06-08T02:34:13.369152,12.80929786,.0008031,66.0384,154.0379,269.2531,90.7564,0,U,66514,999,2600,.13111E-3,-.31E-6,0
CAS500-3,2025-274F,2026-06-07T19:16:01.900992,14.88299583,.000628,97.7446,87.0675,134.7191,225.4538,0,U,66655,999,2875,.16362E-3,.1459E-4,0
CSG-3,2026-001A,2026-06-08T00:25:18.939648,14.82148132,.0001261,97.8882,342.7525,87.5567,272.5791,0,U,67304,999,2310,.55773E-4,.392E-5,0
PRSC-E03,2026-092A,2026-06-08T05:46:55.723872,15.06626489,.0005098,37.9996,142.4334,302.5444,57.4824,0,U,68835,999,660,.17972E-3,.2607E-4,0
CAS500-2,2026-100AK,2026-06-07T16:13:07.906080,15.20477097,.0011365,97.4081,56.6949,63.8514,296.3889,0,U,69013,999,536,.33297E-3,.7217E-4,0
